STARLINK-6138           
1 57329C 23099B   26122.31993056 -.00002201  00000+0 -81818-4 0  1222
2 57329  43.0015 309.4474 0001354 258.7660 305.9057 15.26731472    17
STARLINK-6212           
1 57330C 23099C   26122.31437500 -.00030143  00000+0 -10921-2 0  1222
2 57330  43.0012 309.3905 0001742 254.5329 318.3794 15.27582956    19
STARLINK-6234           
1 57331C 23099D   26122.28451389 -.00034859  00000+0 -12628-2 0  1224
2 57331  43.0010 309.6104 0001562 262.0670 125.2100 15.27589839    18
STARLINK-5831           
1 57332C 23099E   26122.32201389 -.00000285  00000+0 -10332-4 0  1221
2 57332  43.0010 309.4297 0001302 263.7876 315.8072 15.27564915    11
STARLINK-5585           
1 57333C 23099F   26122.26159722 -.00029488  00000+0 -10959-2 0  1227
2 57333  43.0012 309.7178 0001364 267.0646   2.2755 15.26746618    11
STARLINK-5589           
1 57334C 23099G   26122.29979167 -.00007737  00000+0 -28039-3 0  1226
2 57334  43.0027 309.7078 0001471 265.4861 128.1082 15.27565140    18
STARLINK-6316           
1 57335C 23099H   26122.26993056 -.00054266  00000+0 -19656-2 0  1220
2 57335  43.0018 306.7216 0001908 273.1202 214.2731 15.27602051    11
STARLINK-6320           
1 57336C 23099J   26122.30951389  .00000752  00000+0  27244-4 0  1222
2 57336  43.0025 306.3892 0001700 268.8016 111.9269 15.27563030    12
STARLINK-6322           
1 57337C 23099K   26122.27131944 -.00033398  00000+0 -12098-2 0  1229
2 57337  43.0017 309.9697 0001664 264.4441 289.9092 15.27591013    11
STARLINK-6374           
1 57338C 23099L   26122.26020833 -.00047031  00000+0 -17478-2 0  1229
2 57338  43.0015 309.9206 0001011 254.6277 282.1923 15.26758890    15
STARLINK-6332           
1 57339C 23099M   26122.29145833 -.00013940  00000+0 -50510-3 0  1228
2 57339  43.0033 309.8059 0001463 268.7073  57.7750 15.27573215    13
STARLINK-6321           
1 57340C 23099N   26122.31159722 -.00004274  00000+0 -15500-3 0  1225
2 57340  43.0020 309.9756 0001753 265.9011  51.2930 15.27539404    10
STARLINK-6377           
1 57341C 23099P   26122.27826389 -.00064184  00000+0 -23243-2 0  1229
2 57341  43.0001 313.1204 0001578 272.6132  54.6549 15.27615704    10
STARLINK-6375           
1 57342C 23099Q   26122.31506944 -.00009476  00000+0 -34329-3 0  1228
2 57342  43.0030 306.2385 0001741 262.7330 205.1687 15.27575651    10
STARLINK-6379           
1 57343C 23099R   26122.27340278 -.00057458  00000+0 -21351-2 0  1223
2 57343  43.0036 309.9472 0001463 261.6422 307.6189 15.26765302    13
STARLINK-6380           
1 57344C 23099S   26122.28729167 -.00013853  00000+0 -50196-3 0  1224
2 57344  42.9999 309.4378 0001540 262.3316 203.9163 15.27572758    18
STARLINK-6373           
1 57345C 23099T   26122.25951389 -.00068132  00000+0 -24671-2 0  1223
2 57345  42.9997 313.1898 0001482 257.2010 340.9982 15.27620632    11
STARLINK-6359           
1 57346C 23099U   26122.32687500  .00007768  00000+0  28872-3 0  1227
2 57346  43.0036 306.3350 0001837 267.4523 197.4055 15.26725619    17
STARLINK-6378           
1 57347C 23099V   26122.28798611  .00052939  00000+0  20177-2 0  1228
2 57347  43.0000 313.1014 0001341 270.2061  94.7984 15.25873541    18
STARLINK-6372           
1 57348C 23099W   26122.33381944  .00008594  00000+0  31131-3 0  1223
2 57348  43.0040 306.2144 0002398 276.5681 259.0980 15.27568082    15
STARLINK-6376           
1 57349C 23099X   26122.30326389 -.00025792  00000+0 -93446-3 0  1221
2 57349  43.0016 306.0844 0001541 259.7645 235.1263 15.27581377    17
STARLINK-6362           
1 57350C 23099Y   26122.30604167 -.00047582  00000+0 -17244-2 0  1228
2 57350  43.0038 299.0567 0001953 259.9759 230.8973 15.27583658    15
STARLINK-6331           
1 57351C 23099Z   26122.25812500 -.00060264  00000+0 -21832-2 0  1225
2 57351  43.0014 306.1306 0001563 252.4359  78.8104 15.27601006    16
STARLINK-6297           
1 57352C 23099AA  26122.31298611 -.00004118  00000+0 -14917-3 0  1227
2 57352  43.0038 298.9305 0002030 266.8786 297.5479 15.27572065    10
STARLINK-6324           
1 57353C 23099AB  26122.30187500 -.00096775  00000+0 -35081-2 0  1225
2 57353  42.9998 306.1728 0001481 270.2736 181.6739 15.27599464    12
STARLINK-6293           
1 57354C 23099AC  26122.30673611  .00005890  00000+0  21343-3 0  1222
2 57354  43.0033 298.9275 0002062 270.8017 273.3828 15.27560259    12
STARLINK-6276           
1 57355C 23099AD  26122.29423611  .00002507  00000+0  90827-4 0  1220
2 57355  43.0002 299.3052 0001827 262.9600  85.0332 15.27572103    14
STARLINK-6355           
1 57356C 23099AE  26122.27895833 -.00007132  00000+0 -25855-3 0  1227
2 57356  43.0025 299.2702 0001900 266.9657  46.5029 15.27550403    13
STARLINK-5600           
1 57357C 23099AF  26122.29909722 -.00044191  00000+0 -16017-2 0  1228
2 57357  43.0012 298.7657 0001706 258.3830 328.6953 15.27577020    19
STARLINK-6299           
1 57358C 23099AG  26122.30465278 -.00011302  00000+0 -43073-3 0  1225
2 57358  43.0042 298.1999 0001805 265.3170 221.2577 15.25906783    11
STARLINK-6347           
1 57359C 23099AH  26122.28659722 -.00020232  00000+0 -73303-3 0  1223
2 57359  43.0038 299.1122 0001712 260.8308 144.1691 15.27578395    12
STARLINK-6348           
1 57360C 23099AJ  26122.26854167 -.00025650  00000+0 -95326-3 0  1221
2 57360  42.9998 298.6639 0001557 264.0924 272.1392 15.26745903    11
STARLINK-6340           
1 57361C 23099AK  26122.27131944 -.00012419  00000+0 -44992-3 0  1226
2 57361  43.0009 299.4112 0001830 265.3325 323.5719 15.27576508    13
STARLINK-6343           
1 57362C 23099AL  26122.27479167 -.00006654  00000+0 -24110-3 0  1223
2 57362  43.0008 298.7829 0001529 265.5185 237.2040 15.27568062    15
STARLINK-6356           
1 57363C 23099AM  26122.30118056  .00006365  00000+0  23040-3 0  1223
2 57363  42.9996 298.5405 0001823 253.1645  77.2314 15.27591856    12
STARLINK-6338           
1 57364C 23099AN  26122.30465278  .00008998  00000+0  33438-3 0  1221
2 57364  42.9997 298.4542 0001564 252.0318 124.2717 15.26729364    18
STARLINK-5007           
1 57365C 23099AP  26122.31368056  .00010537  00000+0  38189-3 0  1229
2 57365  43.0006 298.8420 0001422 256.2637 340.3052 15.27553420    16
STARLINK-6174           
1 57366C 23099AQ  26122.32201389  .00016676  00000+0  60430-3 0  1220
2 57366  43.0000 298.7506 0001488 263.9349  39.7309 15.27554931    14
STARLINK-6215           
1 57367C 23099AR  26122.28243056  .00004732  00000+0  17141-3 0  1224
2 57367  43.0027 280.4156 0001965 265.4542 358.7285 15.27569192    17
STARLINK-6218           
1 57368C 23099AS  26122.27201389 -.00031531  00000+0 -11718-2 0  1229
2 57368  43.0014 298.9955 0001509 260.0555 142.4149 15.26750026    18
STARLINK-6168           
1 57369C 23099AT  26122.28173611 -.00021299  00000+0 -77168-3 0  1229
2 57369  43.0009 298.8774 0001617 260.5486 223.8075 15.27579547    19
STARLINK-5353           
1 57370C 23099AU  26122.31437500  .00010224  00000+0  37999-3 0  1227
2 57370  43.0006 298.8450 0001566 265.6369 332.3512 15.26724293    19
STARLINK-6032           
1 57371C 23099AV  26122.28659722 -.00003364  00000+0 -12501-3 0  1227
2 57371  43.0007 298.7159 0001458 267.7570 298.9524 15.26737526    16
STARLINK-5975           
1 57372C 23099AW  26122.29562500  .00004286  00000+0  15928-3 0  1224
2 57372  43.0034 299.1205 0002069 268.3913 152.4927 15.26727742    11
STARLINK-6370           
1 57373C 23099AX  26122.33104167  .00009724  00000+0  35225-3 0  1225
2 57373  43.0021 298.9462 0002312 269.0165 338.2288 15.27566932    15
STARLINK-6369           
1 57374C 23099AY  26122.28451389  .00003508  00000+0  12712-3 0  1221
2 57374  43.0028 281.0789 0001472 260.3790  99.3873 15.27561426    10
STARLINK-6363           
1 57375C 23099AZ  26122.29145833 -.00007679  00000+0 -27820-3 0  1228
2 57375  43.0013 299.1581 0001835 262.6153 133.7690 15.27574327    10
STARLINK-6367           
1 57376C 23099BA  26122.26784722 -.00021450  00000+0 -79719-3 0  1229
2 57376  43.0022 295.4490 0001334 257.5033 190.1835 15.26743236    17
STARLINK-6358           
1 57377C 23099BB  26122.31368056 -.00004952  00000+0 -22466-3 0  1229
2 57377  43.0016 299.9960 0001662 261.6546 211.1418 15.20033038    18
STARLINK-6364           
1 57378C 23099BC  26122.26854167  .00027277  00000+0  10137-2 0  1221
2 57378  43.0039 269.7591 0002136 264.6926  55.2640 15.26718872    17
STARLINK-6361           
1 57379C 23099BD  26122.26298611 -.00014852  00000+0 -53802-3 0  1222
2 57379  43.0009 295.5661 0001147 268.2891 117.1842 15.27581559    15
STARLINK-6366           
1 57380C 23099BE  26122.33520833  .00034317  00000+0  12754-2 0  1222
2 57380  43.0005 269.5019 0001682 264.9537   5.4139 15.26714193    14
STARLINK-6371           
1 57381C 23099BF  26122.32340278  .00028823  00000+0  10438-2 0  1227
2 57381  42.9990 280.7959 0001388 258.2758 336.8401 15.27569697    19
STARLINK-30240          
1 57404C 23102A   26122.33520833  .00004984  00000+0  18062-3 0  1220
2 57404  43.0007 305.6402 0001460 260.0658 114.4941 15.27555245    10
STARLINK-30195          
1 57406C 23102C   26122.25812500  .00263520  00000+0  11346-1 0  1227
2 57406  43.0003 312.8241 0002289 280.0054  65.2205 15.21679988    12
STARLINK-30207          
1 57407C 23102D   26122.27965278 -.00025552  00000+0 -92616-3 0  1225
2 57407  43.0021 291.4152 0001643 266.4863 123.9653 15.27567439    17
STARLINK-30205          
1 57408C 23102E   26122.27826389 -.00055112  00000+0 -19970-2 0  1221
2 57408  43.0029 306.2517 0001552 260.1212  40.6271 15.27591590    10
STARLINK-30222          
1 57409C 23102F   26122.28312500  .00002758  00000+0  10252-3 0  1229
2 57409  43.0014 305.7977 0001623 270.1206 235.4616 15.26719095    10
STARLINK-30172          
1 57410C 23102G   26122.29284722  .00000976  00000+0  36253-4 0  1226
2 57410  43.0033 306.5168 0001559 265.6484 323.5173 15.26734438    14
